IRIDIUM 119             
1 42959U 17061E   24240.93049047  .00000426  00000+0  14497-3 0  9991
2 42959  86.3959 300.3332 0002182  86.1410 274.0035 14.34220971360461
IRIDIUM 107             
1 42960U 17061F   24240.87975108  .00000322  00000+0  10799-3 0  9998
2 42960  86.3960 300.3717 0002078  88.7163 271.4271 14.34220702360475
IRIDIUM 132             
1 42961U 17061G   24240.88609526  .00000139  00000+0  42435-4 0  9997
2 42961  86.3962 300.3535 0001895  92.5908 267.5505 14.34217894360465
IRIDIUM 125             
1 42964U 17061K   24240.91146738  .00000171  00000+0  54133-4 0  9999
2 42964  86.3962 300.4465 0002276  78.6538 281.4913 14.34217565360507
IRIDIUM 138             
1 43071U 17083B   24240.91096335  .00000007  00000+0 -45084-5 0  9995
2 43071  86.3927 236.7850 0002457  82.0336 278.1139 14.34217688349789
